{"type": "FeatureCollection", "features": [ {"type": "Feature", "properties": {"norad_id": 34610, "name": "COSMOS 2251 DEB", "group": "cosmos-2251-debris", "lat": -45.156210582285595, "lon": 82.10695944457359, "alt_km": 983.7864013474264, "timestamp": "2025-12-22T09:53:37.794840+00:00", "meta": {"OBJECT_NAME": "COSMOS 2251 DEB", "OBJECT_ID": "1993-036WF", "EPOCH": "2025-12-16T19:43:22.866816", "MEAN_MOTION": 14.07083274, "ECCENTRICITY": 0.01805005, "INCLINATION": 74.0182, "RA_OF_ASC_NODE": 255.1605, "ARG_OF_PERICENTER": 24.866, "MEAN_ANOMALY": 336.104, "EPHEMERIS_TYPE": 0, "CLASSIFICATION_TYPE": "U", "NORAD_CAT_ID": 34610, "ELEMENT_SET_NO": 999, "REV_AT_EPOCH": 85617, "BSTAR": 0.0012903668, "MEAN_MOTION_DOT": 2.479e-05, "MEAN_MOTION_DDOT": 0}, "tle": {"line1": "1 34610U 93036WF  25350.82179244  .00002479  00000+0  12904-2 0  9996", "line2": "2 34610  74.0182 255.1605 0180500  24.8660 336.1040 14.07083274856172"}}, "geometry": {"type": "Point", "coordinates": [82.10695944457359, -45.156210582285595]}}, {"type": "Feature", "properties": {"norad_id": 34611, "name": "COSMOS 2251 DEB", "group": "cosmos-2251-debris", "lat": -58.28418177995565, "lon": 54.68660741840743, "alt_km": 684.1903970893982, "timestamp": "2025-12-22T09:53:37.794850+00:00", "meta": {"OBJECT_NAME": "COSMOS 2251 DEB", "OBJECT_ID": "1993-036WG", "EPOCH": "2025-12-22T00:37:52.656096", "MEAN_MOTION": 14.69657581, "ECCENTRICITY": 0.0021738, "INCLINATION": 74.0537, "RA_OF_ASC_NODE": 82.9923, "ARG_OF_PERICENTER": 121.1927, "MEAN_ANOMALY": 295.5639, "EPHEMERIS_TYPE": 0, "CLASSIFICATION_TYPE": "U", "NORAD_CAT_ID": 34611, "ELEMENT_SET_NO": 999, "REV_AT_EPOCH": 88527, "BSTAR": 0.0014538, "MEAN_MOTION_DOT": 8.662e-05, "MEAN_MOTION_DDOT": 0}, "tle": {"line1": "1 34611U 93036WG  25356.02630389  .00008662  00000+0  14538-2 0  9992", "line2": "2 34611  74.0537  82.9923 0021738 121.1927 295.5639 14.69657581885271"}}, "geometry": {"type": "Point", "coordinates": [54.68660741840743, -58.28418177995565]}}, {"type": "Feature", "properties": {"norad_id": 34613, "name": "COSMOS 2251 DEB", "group": "cosmos-2251-debris", "lat": -35.04604646121918, "lon": -110.64988275319524, "alt_km": 856.4804793222074, "timestamp": "2025-12-22T09:53:37.794860+00:00", "meta": {"OBJECT_NAME": "COSMOS 2251 DEB", "OBJECT_ID": "1993-036WJ", "EPOCH": "2025-12-22T00:02:12.767424", "MEAN_MOTION": 14.26485376, "ECCENTRICITY": 0.011054, "INCLINATION": 73.9632, "RA_OF_ASC_NODE": 261.7345, "ARG_OF_PERICENTER": 91.1369, "MEAN_ANOMALY": 285.001, "EPHEMERIS_TYPE": 0, "CLASSIFICATION_TYPE": "U", "NORAD_CAT_ID": 34613, "ELEMENT_SET_NO": 999, "REV_AT_EPOCH": 86595, "BSTAR": 0.0011767, "MEAN_MOTION_DOT": 2.999e-05, "MEAN_MOTION_DDOT": 0}, "tle": {"line1": "1 34613U 93036WJ  25356.00153666  .00002999  00000+0  11767-2 0  9998", "line2": "2 34613  73.9632 261.7345 0110540  91.1369 285.0010 14.26485376865952"}}, "geometry": {"type": "Point", "coordinates": [-110.64988275319524, -35.04604646121918]}}, {"type": "Feature", "properties": {"norad_id": 34614, "name": "COSMOS 2251 DEB", "group": "cosmos-2251-debris", "lat": -63.898993605791084, "lon": -69.692698546212, "alt_km": 713.6159099452125, "timestamp": "2025-12-22T09:53:37.794870+00:00", "meta": {"OBJECT_NAME": "COSMOS 2251 DEB", "OBJECT_ID": "1993-036WK", "EPOCH": "2025-12-18T23:21:59.727744", "MEAN_MOTION": 14.17670739, "ECCENTRICITY": 0.0197223, "INCLINATION": 73.8822, "RA_OF_ASC_NODE": 332.666, "ARG_OF_PERICENTER": 325.6345, "MEAN_ANOMALY": 63.1604, "EPHEMERIS_TYPE": 0, "CLASSIFICATION_TYPE": "U", "NORAD_CAT_ID": 34614, "ELEMENT_SET_NO": 999, "REV_AT_EPOCH": 84855, "BSTAR": 0.0046815228, "MEAN_MOTION_DOT": 0.00011531, "MEAN_MOTION_DDOT": 0}, "tle": {"line1": "1 34614U 93036WK  25352.97360796  .00011531  00000+0  46815-2 0  9999", "line2": "2 34614  73.8822 332.6660 0197223 325.6345  63.1604 14.17670739848553"}}, "geometry": {"type": "Point", "coordinates": [-69.692698546212, -63.898993605791084]}}, {"type": "Feature", "properties": {"norad_id": 34615, "name": "COSMOS 2251 DEB", "group": "cosmos-2251-debris", "lat": 60.15443316932442, "lon": -51.37713401015912, "alt_km": 1194.6915006877507, "timestamp": "2025-12-22T09:53:37.794880+00:00", "meta": {"OBJECT_NAME": "COSMOS 2251 DEB", "OBJECT_ID": "1993-036WL", "EPOCH": "2025-12-20T18:38:01.201920", "MEAN_MOTION": 13.52204408, "ECCENTRICITY": 0.0400621, "INCLINATION": 74.0047, "RA_OF_ASC_NODE": 281.2515, "ARG_OF_PERICENTER": 186.7825, "MEAN_ANOMALY": 201.5832, "EPHEMERIS_TYPE": 0, "CLASSIFICATION_TYPE": "U", "NORAD_CAT_ID": 34615, "ELEMENT_SET_NO": 999, "REV_AT_EPOCH": 82924, "BSTAR": 5.7151311e-05, "MEAN_MOTION_DOT": 4.1e-07, "MEAN_MOTION_DDOT": 0}, "tle": {"line1": "1 34615U 93036WL  25354.77640280  .00000041  00000+0  57151-4 0  9990", "line2": "2 34615  74.0047 281.2515 0400621 186.7825 201.5832 13.52204408829242"}}, "geometry": {"type": "Point", "coordinates": [-51.37713401015912, 60.15443316932442]}}, {"type": "Feature", "properties": {"norad_id": 34619, "name": "COSMOS 2251 DEB", "group": "cosmos-2251-debris", "lat": -65.26220659127097, "lon": 142.9637562221638, "alt_km": 620.4330871715265, "timestamp": "2025-12-22T09:53:37.794889+00:00", "meta": {"OBJECT_NAME": "COSMOS 2251 DEB", "OBJECT_ID": "1993-036WQ", "EPOCH": "2025-12-21T22:44:17.672064", "MEAN_MOTION": 14.64666718, "ECCENTRICITY": 0.0094768, "INCLINATION": 74.0432, "RA_OF_ASC_NODE": 182.2451, "ARG_OF_PERICENTER": 274.9951, "MEAN_ANOMALY": 84.0404, "EPHEMERIS_TYPE": 0, "CLASSIFICATION_TYPE": "U", "NORAD_CAT_ID": 34619, "ELEMENT_SET_NO": 999, "REV_AT_EPOCH": 89433, "BSTAR": 0.00019445, "MEAN_MOTION_DOT": 1.069e-05, "MEAN_MOTION_DDOT": 0}, "tle": {"line1": "1 34619U 93036WQ  25355.94742676  .00001069  00000+0  19445-3 0  9990", "line2": "2 34619  74.0432 182.2451 0094768 274.9951  84.0404 14.64666718894335"}}, "geometry": {"type": "Point", "coordinates": [142.9637562221638, -65.26220659127097]}}, {"type": "Feature", "properties": {"norad_id": 34620, "name": "COSMOS 2251 DEB", "group": "cosmos-2251-debris", "lat": -10.672981260553254, "lon": -161.68168410572804, "alt_km": 754.1424502189566, "timestamp": "2025-12-22T09:53:37.794899+00:00", "meta": {"OBJECT_NAME": "COSMOS 2251 DEB", "OBJECT_ID": "1993-036WR", "EPOCH": "2025-12-22T00:00:17.870976", "MEAN_MOTION": 14.49231042, "ECCENTRICITY": 0.0079745, "INCLINATION": 74.0502, "RA_OF_ASC_NODE": 202.1798, "ARG_OF_PERICENTER": 236.5192, "MEAN_ANOMALY": 122.8329, "EPHEMERIS_TYPE": 0, "CLASSIFICATION_TYPE": "U", "NORAD_CAT_ID": 34620, "ELEMENT_SET_NO": 999, "REV_AT_EPOCH": 86961, "BSTAR": 0.0020088, "MEAN_MOTION_DOT": 7.951e-05, "MEAN_MOTION_DDOT": 0}, "tle": {"line1": "1 34620U 93036WR  25356.00020684  .00007951  00000+0  20088-2 0  9998", "line2": "2 34620  74.0502 202.1798 0079745 236.5192 122.8329 14.49231042869611"}}, "geometry": {"type": "Point", "coordinates": [-161.68168410572804, -10.672981260553254]}}, {"type": "Feature", "properties": {"norad_id": 34622, "name": "COSMOS 2251 DEB", "group": "cosmos-2251-debris", "lat": 53.209998279927646, "lon": 87.16099733924405, "alt_km": 842.6201720837398, "timestamp": "2025-12-22T09:53:37.794926+00:00", "meta": {"OBJECT_NAME": "COSMOS 2251 DEB", "OBJECT_ID": "1993-036WT", "EPOCH": "2025-12-21T19:57:25.913952", "MEAN_MOTION": 14.22079375, "ECCENTRICITY": 0.010479, "INCLINATION": 74.0423, "RA_OF_ASC_NODE": 290.6983, "ARG_OF_PERICENTER": 11.0154, "MEAN_ANOMALY": 19.7472, "EPHEMERIS_TYPE": 0, "CLASSIFICATION_TYPE": "U", "NORAD_CAT_ID": 34622, "ELEMENT_SET_NO": 999, "REV_AT_EPOCH": 86589, "BSTAR": 0.00067914, "MEAN_MOTION_DOT": 1.564e-05, "MEAN_MOTION_DDOT": 0}, "tle": {"line1": "1 34622U 93036WT  25355.83154993  .00001564  00000+0  67914-3 0  9995", "line2": "2 34622  74.0423 290.6983 0104790  11.0154  19.7472 14.22079375865895"}}, "geometry": {"type": "Point", "coordinates": [87.16099733924405, 53.209998279927646]}}, {"type": "Feature", "properties": {"norad_id": 34626, "name": "COSMOS 2251 DEB", "group": "cosmos-2251-debris", "lat": -66.78777760328505, "lon": 166.91865433226104, "alt_km": 674.6161726630717, "timestamp": "2025-12-22T09:53:37.794938+00:00", "meta": {"OBJECT_NAME": "COSMOS 2251 DEB", "OBJECT_ID": "1993-036WX", "EPOCH": "2025-12-21T07:20:03.192000", "MEAN_MOTION": 14.72291776, "ECCENTRICITY": 0.00269802, "INCLINATION": 74.0484, "RA_OF_ASC_NODE": 307.2376, "ARG_OF_PERICENTER": 32.9629, "MEAN_ANOMALY": 117.0243, "EPHEMERIS_TYPE": 0, "CLASSIFICATION_TYPE": "U", "NORAD_CAT_ID": 34626, "ELEMENT_SET_NO": 999, "REV_AT_EPOCH": 89270, "BSTAR": 0.00078061568, "MEAN_MOTION_DOT": 4.932e-05, "MEAN_MOTION_DDOT": 0}, "tle": {"line1": "1 34626U 93036WX  25355.30559250  .00004932  00000+0  78062-3 0  9994", "line2": "2 34626  74.0484 307.2376 0026980  32.9629 117.0243 14.72291776892704"}}, "geometry": {"type": "Point", "coordinates": [166.91865433226104, -66.78777760328505]}}, {"type": "Feature", "properties": {"norad_id": 34634, "name": "COSMOS 2251 DEB", "group": "cosmos-2251-debris", "lat": -22.2039859063847, "lon": -156.63552881297883, "alt_km": 707.6201557173918, "timestamp": "2025-12-22T09:53:37.794948+00:00", "meta": {"OBJECT_NAME": "COSMOS 2251 DEB", "OBJECT_ID": "1993-036XF", "EPOCH": "2025-12-20T13:00:49.103136", "MEAN_MOTION": 14.55677322, "ECCENTRICITY": 0.0043818, "INCLINATION": 74.0515, "RA_OF_ASC_NODE": 20.2005, "ARG_OF_PERICENTER": 125.2376, "MEAN_ANOMALY": 1.6445, "EPHEMERIS_TYPE": 0, "CLASSIFICATION_TYPE": "U", "NORAD_CAT_ID": 34634, "ELEMENT_SET_NO": 999, "REV_AT_EPOCH": 88895, "BSTAR": 0.00019363, "MEAN_MOTION_DOT": 8.28e-06, "MEAN_MOTION_DDOT": 0}, "tle": {"line1": "1 34634U 93036XF  25354.54223499  .00000828  00000+0  19363-3 0  9990", "line2": "2 34634  74.0515  20.2005 0043818 125.2376   1.6445 14.55677322888953"}}, "geometry": {"type": "Point", "coordinates": [-156.63552881297883, -22.2039859063847]}}]}